COMMENT,ORIGINATOR,NORAD_CAT_ID,OBJECT_NAME,OBJECT_TYPE,CLASSIFICATION_TYPE,INTLDES,EPOCH,EPOCH_MICROSECONDS,MEAN_MOTION,ECCENTRICITY,INCLINATION,RA_OF_ASC_NODE,ARG_OF_PERICENTER,MEAN_ANOMALY,EPHEMERIS_TYPE,ELEMENT_SET_NO,REV_AT_EPOCH,BSTAR,MEAN_MOTION_DOT,MEAN_MOTION_DDOT,FILE,TLE_LINE0,TLE_LINE1,TLE_LINE2,OBJECT_ID,OBJECT_NUMBER,SEMIMAJOR_AXIS,PERIOD,APOGEE,PERIGEE,DECAYED
"GENERATED VIA SPACETRACK.ORG API","18 SPCS","48888","SPACEBEE-103","PAYLOAD","U","21059K","2021-11-22 19:57:02","466720","15.12680614","0.0010352","97.5325","93.4715","96.7694","263.4715","0","999","2267","0.00014942","0.00002552","0","3221662","0 SPACEBEE-103","1 48888U 21059K   21326.83127855  .00002552  00000-0  14942-3 0  9993","2 48888  97.5325  93.4715 0010352  96.7694 263.4715 15.12680614 22679","2021-059K","48888","6906.166","95.195","535.180","520.882","0"
"GENERATED VIA SPACETRACK.ORG API","18 SPCS","48888","SPACEBEE-103","PAYLOAD","U","21059K","2021-11-23 08:39:05","69376","15.12683246","0.0010346","97.5324","93.9939","95.1793","265.0619","0","999","2275","0.00014379","0.00002453","0","3222418","0 SPACEBEE-103","1 48888U 21059K   21327.36047534  .00002453  00000-0  14379-3 0  9991","2 48888  97.5324  93.9939 0010346  95.1793 265.0619 15.12683246 22751","2021-059K","48888","6906.158","95.195","535.168","520.878","0"
"GENERATED VIA SPACETRACK.ORG API","18 SPCS","48888","SPACEBEE-103","PAYLOAD","U","21059K","2021-11-23 21:21:07","585632","15.12686124","0.0010348","97.5324","94.5163","93.5774","266.6641","0","999","2283","0.00014173","0.00002417","0","3222563","0 SPACEBEE-103","1 48888U 21059K   21327.88967113  .00002417  00000-0  14173-3 0  9994","2 48888  97.5324  94.5163 0010348  93.5774 266.6641 15.12686124 22839","2021-059K","48888","6906.149","95.195","535.161","520.868","0"
"GENERATED VIA SPACETRACK.ORG API","18 SPCS","48888","SPACEBEE-103","PAYLOAD","U","21059K","2021-11-24 05:17:24","100512","15.1268741","0.0010359","97.5324","94.8429","92.6436","267.5981","0","999","2288","0.00013009","0.00002214","0","3222778","0 SPACEBEE-103","1 48888U 21059K   21328.22041783  .00002214  00000-0  13009-3 0  9991","2 48888  97.5324  94.8429 0010359  92.6436 267.5981 15.12687410 22885","2021-059K","48888","6906.145","95.195","535.164","520.856","0"
"GENERATED VIA SPACETRACK.ORG API","18 SPCS","48888","SPACEBEE-103","PAYLOAD","U","21059K","2021-11-24 05:17:24","100512","15.1268741","0.0010359","97.5324","94.8429","92.6436","267.5981","0","999","2288","0.00013009","0.00002214","0","3223022","0 SPACEBEE-103","1 48888U 21059K   21328.22041783  .00002214  00000-0  13009-3 0  9991","2 48888  97.5324  94.8429 0010359  92.6436 267.5981 15.12687410 22885","2021-059K","48888","6906.145","95.195","535.164","520.856","0"
"GENERATED VIA SPACETRACK.ORG API","18 SPCS","48888","SPACEBEE-103","PAYLOAD","U","21059K","2021-11-25 08:16:44","73984","15.12692429","0.0010355","97.5323","95.953","89.2429","270.9988","0","999","2305","0.0001137","0.00001927","0","3223877","0 SPACEBEE-103","1 48888U 21059K   21329.34495456  .00001927  00000-0  11370-3 0  9994","2 48888  97.5323  95.9530 0010355  89.2429 270.9988 15.12692429 23050","2021-059K","48888","6906.130","95.195","535.146","520.844","0"
"GENERATED VIA SPACETRACK.ORG API","18 SPCS","48888","SPACEBEE-103","PAYLOAD","U","21059K","2021-11-25 08:16:44","73984","15.12692429","0.0010355","97.5323","95.953","89.2429","270.9988","0","999","2305","0.0001137","0.00001927","0","3223911","0 SPACEBEE-103","1 48888U 21059K   21329.34495456  .00001927  00000-0  11370-3 0  9994","2 48888  97.5323  95.9530 0010355  89.2429 270.9988 15.12692429 23050","2021-059K","48888","6906.130","95.195","535.146","520.844","0"
"GENERATED VIA SPACETRACK.ORG API","18 SPCS","48888","SPACEBEE-103","PAYLOAD","U","21059K","2021-11-26 14:26:34","284480","15.12699031","0.001035","97.5322","97.1937","85.4597","274.7816","0","999","2324","0.00013387","0.00002281","0","3224704","0 SPACEBEE-103","1 48888U 21059K   21330.60178570  .00002281  00000-0  13387-3 0  9994","2 48888  97.5322  97.1937 0010350  85.4597 274.7816 15.12699031 23242","2021-059K","48888","6906.110","95.194","535.123","520.827","0"
"GENERATED VIA SPACETRACK.ORG API","18 SPCS","48888","SPACEBEE-103","PAYLOAD","U","21059K","2021-11-26 14:26:34","284480","15.12699031","0.001035","97.5322","97.1937","85.4597","274.7816","0","999","2324","0.00013387","0.00002281","0","3224857","0 SPACEBEE-103","1 48888U 21059K   21330.60178570  .00002281  00000-0  13387-3 0  9994","2 48888  97.5322  97.1937 0010350  85.4597 274.7816 15.12699031 23242","2021-059K","48888","6906.110","95.194","535.123","520.827","0"
"GENERATED VIA SPACETRACK.ORG API","18 SPCS","48888","SPACEBEE-103","PAYLOAD","U","21059K","2021-11-27 14:15:23","128416","15.12703973","0.0010332","97.5321","98.1732","82.4914","277.749","0","999","2339","0.00015007","0.00002565","0","3225405","0 SPACEBEE-103","1 48888U 21059K   21331.59401769  .00002565  00000-0  15007-3 0  9998","2 48888  97.5321  98.1732 0010332  82.4914 277.7490 15.12703973 23393","2021-059K","48888","6906.095","95.194","535.095","520.825","0"
"GENERATED VIA SPACETRACK.ORG API","18 SPCS","48888","SPACEBEE-103","PAYLOAD","U","21059K","2021-11-28 06:07:55","510176","15.12707864","0.0010317","97.5321","98.8262","80.5102","279.7294","0","999","2349","0.00016693","0.00002861","0","3226124","0 SPACEBEE-103","1 48888U 21059K   21332.25550359  .00002861  00000-0  16693-3 0  9993","2 48888  97.5321  98.8262 0010317  80.5102 279.7294 15.12707864 23497","2021-059K","48888","6906.083","95.194","535.073","520.823","0"
"GENERATED VIA SPACETRACK.ORG API","18 SPCS","48888","SPACEBEE-103","PAYLOAD","U","21059K","2021-11-28 06:07:55","510176","15.12707864","0.0010317","97.5321","98.8262","80.5102","279.7294","0","999","2349","0.00016693","0.00002861","0","3226217","0 SPACEBEE-103","1 48888U 21059K   21332.25550359  .00002861  00000-0  16693-3 0  9993","2 48888  97.5321  98.8262 0010317  80.5102 279.7294 15.12707864 23497","2021-059K","48888","6906.083","95.194","535.073","520.823","0"
"GENERATED VIA SPACETRACK.ORG API","18 SPCS","48888","SPACEBEE-103","PAYLOAD","U","21059K","2021-11-28 18:49:57","343008","15.12709821","0.0010294","97.5322","99.3487","78.9579","281.2808","0","999","2357","0.00015866","0.00002716","0","3226391","0 SPACEBEE-103","1 48888U 21059K   21332.78469147  .00002716  00000-0  15866-3 0  9995","2 48888  97.5322  99.3487 0010294  78.9579 281.2808 15.12709821 23579","2021-059K","48888","6906.077","95.193","535.051","520.833","0"
"GENERATED VIA SPACETRACK.ORG API","18 SPCS","48888","SPACEBEE-103","PAYLOAD","U","21059K","2021-11-29 07:31:58","995264","15.12715144","0.0010258","97.5322","99.8712","77.2508","282.9868","0","999","2365","0.00020085","0.00003456","0","3226857","0 SPACEBEE-103","1 48888U 21059K   21333.31387726  .00003456  00000-0  20085-3 0  9998","2 48888  97.5322  99.8712 0010258  77.2508 282.9868 15.12715144 23657","2021-059K","48888","6906.061","95.193","535.010","520.842","0"
"GENERATED VIA SPACETRACK.ORG API","18 SPCS","48888","SPACEBEE-103","PAYLOAD","U","21059K","2021-11-29 07:31:58","995264","15.12715144","0.0010258","97.5322","99.8712","77.2508","282.9868","0","999","2365","0.00020085","0.00003456","0","3226898","0 SPACEBEE-103","1 48888U 21059K   21333.31387726  .00003456  00000-0  20085-3 0  9998","2 48888  97.5322  99.8712 0010258  77.2508 282.9868 15.12715144 23657","2021-059K","48888","6906.061","95.193","535.010","520.842","0"
"GENERATED VIA SPACETRACK.ORG API","18 SPCS","48888","SPACEBEE-103","PAYLOAD","U","21059K","2021-11-29 18:38:45","411936","15.12717203","0.0010242","97.5323","100.3283","75.9365","284.3004","0","999","2372","0.00019183","0.00003298","0","3227094","0 SPACEBEE-103","1 48888U 21059K   21333.77691449  .00003298  00000-0  19183-3 0  9999","2 48888  97.5323 100.3283 0010242  75.9365 284.3004 15.12717203 23722","2021-059K","48888","6906.055","95.193","534.993","520.846","0"
"GENERATED VIA SPACETRACK.ORG API","18 SPCS","48888","SPACEBEE-103","PAYLOAD","U","21059K","2021-11-30 07:20:46","883616","15.12720973","0.0010217","97.5324","100.8508","74.3064","285.9293","0","999","2380","0.00019891","0.00003423","0","3227572","0 SPACEBEE-103","1 48888U 21059K   21334.30609819  .00003423  00000-0  19891-3 0  9995","2 48888  97.5324 100.8508 0010217  74.3064 285.9293 15.12720973 23803","2021-059K","48888","6906.043","95.193","534.964","520.852","0"
"GENERATED VIA SPACETRACK.ORG API","18 SPCS","48888","SPACEBEE-103","PAYLOAD","U","21059K","2021-11-30 15:17:02","748768","15.12723364","0.0010206","97.5325","101.1774","73.3225","286.9125","0","999","2385","0.00020249","0.00003486","0","3227534","0 SPACEBEE-103","1 48888U 21059K   21334.63683737  .00003486  00000-0  20249-3 0  9990","2 48888  97.5325 101.1774 0010206  73.3225 286.9125 15.12723364 23856","2021-059K","48888","6906.036","95.193","534.949","520.853","0"
"GENERATED VIA SPACETRACK.ORG API","18 SPCS","48888","SPACEBEE-103","PAYLOAD","U","21059K","2021-11-30 18:27:33","73920","15.12724367","0.0010206","97.5325","101.308","73.0032","287.2317","0","999","2387","0.00020239","0.00003484","0","3228256","0 SPACEBEE-103","1 48888U 21059K   21334.76913280  .00003484  00000-0  20239-3 0  9990","2 48888  97.5325 101.3080 0010206  73.0032 287.2317 15.12724367 23874","2021-059K","48888","6906.033","95.192","534.946","520.850","0"
"GENERATED VIA SPACETRACK.ORG API","18 SPCS","48888","SPACEBEE-103","PAYLOAD","U","21059K","2021-12-01 07:09:34","288128","15.12730241","0.0010199","97.5326","101.8305","71.4321","288.8016","0","999","2395","0.00023668","0.00004086","0","3229140","0 SPACEBEE-103","1 48888U 21059K   21335.29831352  .00004086  00000-0  23668-3 0  9996","2 48888  97.5326 101.8305 0010199  71.4321 288.8016 15.12730241 23954","2021-059K","48888","6906.015","95.192","534.923","520.837","0"
